{"fetched_at":"2026-07-15T17:47:30.557Z","source":"https://celestrak.org/NORAD/elements/gp.php?NAME=SENTINEL&FORMAT=JSON","constellation":"sentinel-5p","records":[{"OBJECT_NAME":"SENTINEL-5P","OBJECT_ID":"2017-064A","EPOCH":"2026-07-14T19:58:34.978656","CLASSIFICATION_TYPE":"U","MEAN_MOTION":14.19523253,"ECCENTRICITY":0.00011291,"INCLINATION":98.7929,"RA_OF_ASC_NODE":137.7679,"ARG_OF_PERICENTER":93.1727,"MEAN_ANOMALY":266.9578,"EPHEMERIS_TYPE":0,"NORAD_CAT_ID":42969,"ELEMENT_SET_NO":999,"REV_AT_EPOCH":45348,"BSTAR":0.00002002461,"MEAN_MOTION_DOT":-2e-8,"MEAN_MOTION_DDOT":0}]}
